start=new Date('2023-01-24T00:00:00.000Z').valueOf();
sats=[{"REV_AT_EPOCH":"4867","COUNTRY_CODE":"US","APOAPSIS":"541.277","OBJECT_TYPE":"PAYLOAD","TLE_LINE2":"2 52129  53.2175 151.5408 0002194  74.5410 285.5825 15.08835375 48670","OBJECT_NAME":"STARLINK-3661","CLASSIFICATION_TYPE":"U","BSTAR":"0.00005160400000","FILE":"3759022","NORAD_CAT_ID":"52129","MEAN_MOTION_DDOT":"0.0000000000000","TIME_SYSTEM":"UTC","REF_FRAME":"TEME","GP_ID":"223617005","PERIOD":"95.438","ECCENTRICITY":"0.00021940","CENTER_NAME":"EARTH","LAUNCH_DATE":"2022-03-19","PERIAPSIS":"538.242","ARG_OF_PERICENTER":"74.5410","EPOCH":"2023-01-23T15:03:21.560832","DECAY_DATE":null,"RCS_SIZE":"LARGE","SITE":"AFETR","ELEMENT_SET_NO":"999","SEMIMAJOR_AXIS":"6917.895","EPHEMERIS_TYPE":"0","MEAN_MOTION_DOT":"0.00000533","TLE_LINE1":"1 52129U 22029AT  23023.62733288  .00000533  00000-0  51604-4 0  9994","MEAN_ELEMENT_THEORY":"SGP4","OBJECT_ID":"2022-029AT","RA_OF_ASC_NODE":"151.5408","INCLINATION":"53.2175","MEAN_MOTION":"15.08835375","MEAN_ANOMALY":"285.5825"},{"MEAN_ANOMALY":"277.4294","OBJECT_ID":"2022-029AV","RA_OF_ASC_NODE":"152.7649","MEAN_MOTION":"15.08830712","INCLINATION":"53.2164","MEAN_ELEMENT_THEORY":"SGP4","MEAN_MOTION_DOT":"0.00000141","SEMIMAJOR_AXIS":"6917.909","ELEMENT_SET_NO":"999","EPHEMERIS_TYPE":"0","TLE_LINE1":"1 52131U 22029AV  23023.35869206  .00000141  00000-0  26974-4 0  9994","SITE":"AFETR","DECAY_DATE":null,"RCS_SIZE":"LARGE","ARG_OF_PERICENTER":"82.6849","EPOCH":"2023-01-23T08:36:30.993984","ECCENTRICITY":"0.00013270","PERIAPSIS":"538.856","LAUNCH_DATE":"2022-03-19","CENTER_NAME":"EARTH","GP_ID":"223610535","PERIOD":"95.438","REF_FRAME":"TEME","TIME_SYSTEM":"UTC","MEAN_MOTION_DDOT":"0.0000000000000","BSTAR":"0.00002697400000","CLASSIFICATION_TYPE":"U","FILE":"3758684","NORAD_CAT_ID":"52131","OBJECT_NAME":"STARLINK-3711","OBJECT_TYPE":"PAYLOAD","APOAPSIS":"540.692","TLE_LINE2":"2 52131  53.2164 152.7649 0001327  82.6849 277.4294 15.08830712 48630","COUNTRY_CODE":"US","REV_AT_EPOCH":"4863"},{"TLE_LINE1":"1 52132U 22029AW  23023.43229308  .00000345  00000-0  39755-4 0  9994","MEAN_MOTION_DOT":"0.00000345","ELEMENT_SET_NO":"999","SEMIMAJOR_AXIS":"6917.875","EPHEMERIS_TYPE":"0","MEAN_ELEMENT_THEORY":"SGP4","MEAN_MOTION":"15.08841868","INCLINATION":"53.2149","RA_OF_ASC_NODE":"152.4308","OBJECT_ID":"2022-029AW","MEAN_ANOMALY":"266.6028","PERIAPSIS":"538.748","LAUNCH_DATE":"2022-03-19","CENTER_NAME":"EARTH","ECCENTRICITY":"0.00014340","EPOCH":"2023-01-23T10:22:30.122112","ARG_OF_PERICENTER":"93.5129","DECAY_DATE":null,"RCS_SIZE":"LARGE","SITE":"AFETR","NORAD_CAT_ID":"52132","FILE":"3758686","BSTAR":"0.00003975500000","CLASSIFICATION_TYPE":"U","MEAN_MOTION_DDOT":"0.0000000000000","TIME_SYSTEM":"UTC","REF_FRAME":"TEME","PERIOD":"95.437","GP_ID":"223610553","COUNTRY_CODE":"US","REV_AT_EPOCH":"4864","TLE_LINE2":"2 52132  53.2149 152.4308 0001434  93.5129 266.6028 15.08841868 48644","OBJECT_TYPE":"PAYLOAD","APOAPSIS":"540.732","OBJECT_NAME":"STARLINK-3718"},{"TLE_LINE1":"1 52133U 22029AX  23023.35133565  .00008828  00000-0  57201-3 0  9994","ELEMENT_SET_NO":"999","SEMIMAJOR_AXIS":"6917.870","EPHEMERIS_TYPE":"0","MEAN_MOTION_DOT":"0.00008828","MEAN_ELEMENT_THEORY":"SGP4","INCLINATION":"53.2162","MEAN_MOTION":"15.08843245","OBJECT_ID":"2022-029AX","RA_OF_ASC_NODE":"152.7949","MEAN_ANOMALY":"280.0784","CENTER_NAME":"EARTH","LAUNCH_DATE":"2022-03-19","PERIAPSIS":"538.633","ECCENTRICITY":"0.00015940","EPOCH":"2023-01-23T08:25:55.400160","ARG_OF_PERICENTER":"80.0388","SITE":"AFETR","DECAY_DATE":null,"RCS_SIZE":"LARGE","FILE":"3759008","NORAD_CAT_ID":"52133","CLASSIFICATION_TYPE":"U","BSTAR":"0.00057201000000","MEAN_MOTION_DDOT":"0.0000000000000","REF_FRAME":"TEME","TIME_SYSTEM":"UTC","PERIOD":"95.437","GP_ID":"223617514","COUNTRY_CODE":"US","REV_AT_EPOCH":"4863","TLE_LINE2":"2 52133  53.2162 152.7949 0001594  80.0388 280.0784 15.08843245 48638","APOAPSIS":"540.838","OBJECT_TYPE":"PAYLOAD","OBJECT_NAME":"STARLINK-3707"},{"DECAY_DATE":null,"SITE":"AFETR","RCS_SIZE":"LARGE","ARG_OF_PERICENTER":"90.0721","EPOCH":"2023-01-23T08:31:12.923616","ECCENTRICITY":"0.00015360","LAUNCH_DATE":"2022-03-19","PERIAPSIS":"538.675","CENTER_NAME":"EARTH","MEAN_ANOMALY":"270.0447","RA_OF_ASC_NODE":"152.7775","OBJECT_ID":"2022-029AY","MEAN_MOTION":"15.08842666","INCLINATION":"53.2163","MEAN_ELEMENT_THEORY":"SGP4","MEAN_MOTION_DOT":"0.00003175","EPHEMERIS_TYPE":"0","SEMIMAJOR_AXIS":"6917.872","ELEMENT_SET_NO":"999","TLE_LINE1":"1 52134U 22029AY  23023.35501069  .00003175  00000-0  21747-3 0  9999","OBJECT_NAME":"STARLINK-3721","OBJECT_TYPE":"PAYLOAD","APOAPSIS":"540.800","TLE_LINE2":"2 52134  53.2163 152.7775 0001536  90.0721 270.0447 15.08842666 48636","REV_AT_EPOCH":"4863","COUNTRY_CODE":"US","GP_ID":"223610318","PERIOD":"95.437","TIME_SYSTEM":"UTC","REF_FRAME":"TEME","MEAN_MOTION_DDOT":"0.0000000000000","BSTAR":"0.00021747000000","CLASSIFICATION_TYPE":"U","NORAD_CAT_ID":"52134","FILE":"3758686"},{"TLE_LINE1":"1 52135U 22029AZ  23023.34028988  .00015484  00000-0  98848-3 0  9995","MEAN_MOTION_DOT":"0.00015484","SEMIMAJOR_AXIS":"6917.845","EPHEMERIS_TYPE":"0","ELEMENT_SET_NO":"999","MEAN_ELEMENT_THEORY":"SGP4","MEAN_MOTION":"15.08851648","INCLINATION":"53.2133","OBJECT_ID":"2022-029AZ","RA_OF_ASC_NODE":"152.8408","MEAN_ANOMALY":"276.2017","PERIAPSIS":"538.958","LAUNCH_DATE":"2022-03-19","CENTER_NAME":"EARTH","ECCENTRICITY":"0.00010870","EPOCH":"2023-01-23T08:10:01.045632","ARG_OF_PERICENTER":"83.9099","DECAY_DATE":null,"SITE":"AFETR","RCS_SIZE":"LARGE","NORAD_CAT_ID":"52135","FILE":"3758687","BSTAR":"0.00098848000000","CLASSIFICATION_TYPE":"U","MEAN_MOTION_DDOT":"0.0000000000000","REF_FRAME":"TEME","TIME_SYSTEM":"UTC","PERIOD":"95.437","GP_ID":"223610564","REV_AT_EPOCH":"4863","COUNTRY_CODE":"US","TLE_LINE2":"2 52135  53.2133 152.8408 0001087  83.9099 276.2017 15.08851648 48639","OBJECT_TYPE":"PAYLOAD","APOAPSIS":"540.462","OBJECT_NAME":"STARLINK-3729"},{"ECCENTRICITY":"0.00013690","CENTER_NAME":"EARTH","PERIAPSIS":"538.809","LAUNCH_DATE":"2022-03-19","ARG_OF_PERICENTER":"66.4198","EPOCH":"2023-01-23T01:59:05.070048","RCS_SIZE":"LARGE","DECAY_DATE":null,"SITE":"AFETR","EPHEMERIS_TYPE":"0","SEMIMAJOR_AXIS":"6917.891","ELEMENT_SET_NO":"999","MEAN_MOTION_DOT":"0.00001775","TLE_LINE1":"1 52136U 22029BA  23023.08269757  .00001775  00000-0  12957-3 0  9993","MEAN_ELEMENT_THEORY":"SGP4","RA_OF_ASC_NODE":"154.0008","OBJECT_ID":"2022-029BA","INCLINATION":"53.2172","MEAN_MOTION":"15.08836570","MEAN_ANOMALY":"293.6938","REV_AT_EPOCH":"4859","COUNTRY_CODE":"US","APOAPSIS":"540.703","OBJECT_TYPE":"PAYLOAD","TLE_LINE2":"2 52136  53.2172 154.0008 0001369  66.4198 293.6938 15.08836570 48599","OBJECT_NAME":"STARLINK-3720","CLASSIFICATION_TYPE":"U","BSTAR":"0.00012957000000","FILE":"3758387","NORAD_CAT_ID":"52136","MEAN_MOTION_DDOT":"0.0000000000000","TIME_SYSTEM":"UTC","REF_FRAME":"TEME","GP_ID":"223603730","PERIOD":"95.438"},{"MEAN_ELEMENT_THEORY":"SGP4","MEAN_MOTION_DOT":"-0.00000867","SEMIMAJOR_AXIS":"6917.891","ELEMENT_SET_NO":"999","EPHEMERIS_TYPE":"0","TLE_LINE1":"1 52137U 22029BB  23023.33661454 -.00000867  00000-0 -36371-4 0  9992","MEAN_ANOMALY":"296.5053","RA_OF_ASC_NODE":"152.8651","OBJECT_ID":"2022-029BB","MEAN_MOTION":"15.08836674","INCLINATION":"53.2157","ECCENTRICITY":"0.00027660","LAUNCH_DATE":"2022-03-19","PERIAPSIS":"537.842","CENTER_NAME":"EARTH","RCS_SIZE":"LARGE","DECAY_DATE":null,"SITE":"AFETR","ARG_OF_PERICENTER":"63.6223","EPOCH":"2023-01-23T08:04:43.496256","MEAN_MOTION_DDOT":"0.0000000000000","BSTAR":"-0.00003637100000","CLASSIFICATION_TYPE":"U","FILE":"3758688","NORAD_CAT_ID":"52137","GP_ID":"223610572","PERIOD":"95.438","TIME_SYSTEM":"UTC","REF_FRAME":"TEME","OBJECT_TYPE":"PAYLOAD","APOAPSIS":"541.669","TLE_LINE2":"2 52137  53.2157 152.8651 0002766  63.6223 296.5053 15.08836674 48633","REV_AT_EPOCH":"4863","COUNTRY_CODE":"US","OBJECT_NAME":"STARLINK-3733"},{"CENTER_NAME":"EARTH","PERIAPSIS":"538.250","LAUNCH_DATE":"2022-03-19","ECCENTRICITY":"0.00022130","DECAY_DATE":null,"SITE":"AFETR","RCS_SIZE":"LARGE","EPOCH":"2023-01-23T09:50:43.014048","ARG_OF_PERICENTER":"80.7708","MEAN_ELEMENT_THEORY":"SGP4","TLE_LINE1":"1 52138U 22029BC  23023.41022007  .00001036  00000-0  83196-4 0  9991","EPHEMERIS_TYPE":"0","SEMIMAJOR_AXIS":"6917.916","ELEMENT_SET_NO":"999","MEAN_MOTION_DOT":"0.00001036","MEAN_ANOMALY":"279.3534","INCLINATION":"53.2171","MEAN_MOTION":"15.08828464","OBJECT_ID":"2022-029BC","RA_OF_ASC_NODE":"152.5330","TLE_LINE2":"2 52138  53.2171 152.5330 0002213  80.7708 279.3534 15.08828464 48648","APOAPSIS":"541.312","OBJECT_TYPE":"PAYLOAD","COUNTRY_CODE":"US","REV_AT_EPOCH":"4864","OBJECT_NAME":"STARLINK-3723","MEAN_MOTION_DDOT":"0.0000000000000","FILE":"3758688","NORAD_CAT_ID":"52138","CLASSIFICATION_TYPE":"U","BSTAR":"0.00008319600000","PERIOD":"95.438","GP_ID":"223610340","TIME_SYSTEM":"UTC","REF_FRAME":"TEME"},{"TLE_LINE2":"2 52139  53.2157 162.6173 0002116  85.1723 274.9511 15.08834150 48496","APOAPSIS":"541.227","OBJECT_TYPE":"PAYLOAD","REV_AT_EPOCH":"4849","COUNTRY_CODE":"US","OBJECT_NAME":"STARLINK-3730","MEAN_MOTION_DDOT":"0.0000000000000","NORAD_CAT_ID":"52139","FILE":"3758688","CLASSIFICATION_TYPE":"U","BSTAR":"0.00007489300000","PERIOD":"95.438","GP_ID":"223610339","TIME_SYSTEM":"UTC","REF_FRAME":"TEME","CENTER_NAME":"EARTH","LAUNCH_DATE":"2022-03-19","PERIAPSIS":"538.299","ECCENTRICITY":"0.00021160","RCS_SIZE":"LARGE","DECAY_DATE":null,"SITE":"AFETR","EPOCH":"2023-01-23T09:22:53.441184","ARG_OF_PERICENTER":"85.1723","MEAN_ELEMENT_THEORY":"SGP4","TLE_LINE1":"1 52139U 22029BD  23023.39089631  .00000904  00000-0  74893-4 0  9992","ELEMENT_SET_NO":"999","SEMIMAJOR_AXIS":"6917.898","EPHEMERIS_TYPE":"0","MEAN_MOTION_DOT":"0.00000904","MEAN_ANOMALY":"274.9511","INCLINATION":"53.2157","MEAN_MOTION":"15.08834150","RA_OF_ASC_NODE":"162.6173","OBJECT_ID":"2022-029BD"}];
